STARLINK-30910          
1 58376U 23178C   26068.04952987 -.00000155  00000+0  68760-5 0  9999
2 58376  53.1613   4.0336 0000776  92.6274 267.4816 15.30193467129797
BANDWAGON-2 OBJECT D    
1 62380U 24247D   26068.52261193  .00011259  00000+0  40119-3 0  9994
2 62380  44.9954 115.6710 0003488 351.1453   8.9368 15.29076102 67732
